,name,a,e,i,om,w,q,ad,per_y,data_arc,condition_code,n_obs_used,H,neo,pha,diameter,extent,albedo,rot_per,GM,BV,UB,IR,spec_B,spec_T,G,moid,class,n,per,ma
412,Edburga,2.5855418989988,0.3412646982009238,18.72616740716407,103.7147817572925,252.7869505287075,1.703187723151131,3.467896074846469,4.15753172796853,37515,0,2549,10.18,N,N,34.242,,0.129,15.773,,0.68,0.22,,X,M,,0.795395,MBA,0.2370700569131093,1518.538463640505,320.5794255660692
413,Liriope,3.507366133821633,0.07246395276819197,9.55640465979596,110.5743612956119,318.9181205386543,3.253208519959626,3.76152374768364,6.56870651910513,40903,0,2997,9.49,N,N,88.760,,0.027,7.353,,0.75,0.384,,Cg,C,,2.27564,OMB,0.1500487623401739,2399.220056103149,330.6952907743413
414,Palatia,2.798750750237847,0.29938479474557,8.190715851735817,126.4537715014252,298.3842046117621,1.960847331333879,3.636654169141815,4.68224933638858,43848,0,2703,9.21,N,N,83.560,,0.063,20.73,,0.714,0.231,,,DP,,0.989757,MBA,0.2105027333140209,1710.191570115929,204.6189489097223
415,Vaticana,2.791704753256247,0.2181838168575298,12.86312117367126,58.08693500822452,198.1221702650389,2.182599954651491,3.400809551861004,4.66457876938654,44160,0,2955,7.89,N,N,85.47,,0.1689,5.372,,0.892,0.459,,Sl,S,0.2,1.17168,MBA,0.2113001692320397,1703.737395518435,119.3455900828116
416,Suevia,2.798316970350179,0.1359898569019369,6.64853814785803,199.5053240357892,348.8900341628157,2.417774245985997,3.178859694714362,4.68116082204519,42790,0,3226,9.34,N,N,54.874,,0.072,7.034,,0.755,0.357,,Xk,X,,1.41916,MBA,0.2105516816952551,1709.793990252004,114.8443266738321
417,Alemannia,2.592492684844296,0.1196747800435205,6.818364128240865,248.82792648,126.5228070344932,2.282236693021119,2.902748676667473,4.17430820676556,41419,0,2710,9.77,N,N,40.330,,0.201,4.671,,0.703,0.225,,,M,,1.29109,MBA,0.236117276096214,1524.666072521122,108.8880840409457
418,Aurelia,2.597553103983838,0.2507848658849593,3.926309797457084,229.1222525700752,44.47650763668142,1.946126097172192,3.248980110795485,4.18653623775372,44109,0,2979,8.42,N,N,148.701,,0.034,16.784,,0.641,0.23,,,F,0.15,0.931765,MBA,0.2354276249848953,1529.132360839545,173.102567155755
419,Bertholda,3.414893437262542,0.02997701064955739,6.689238845384235,242.6473951258321,235.9634123718677,3.31252514032662,3.517261734198465,6.31064770544204,43480,0,2992,8.4,N,N,138.699,,0.044,11.04,,0.691,0.229,,,P,,2.33538,OMB,0.1561846468655813,2304.964074412706,16.13084946804333
420,Zahringia,2.540322181076535,0.2835183615324878,7.785390662052657,187.3923778887222,209.1732030400774,1.82009419853308,3.26055016361999,4.04894057429522,41917,0,2464,11.78,N,N,14.119,,0.172,6.42,,0.848,0.452,,,S,,0.830405,MBA,0.2434281919633065,1478.875544761328,83.5607482437772
421,Berolina,2.228495325165988,0.214056746616797,4.994891936670259,9.0517762285474,335.2899613434279,1.751470866010216,2.705519784321761,3.32679310979543,41290,0,2508,10.83,N,N,10.714,,0.716,25.978,,0.715,0.292,,,DX,,0.744835,MBA,0.2962691850194932,1215.11118335278,325.8541833529246
422,Diotima,3.066441100385365,0.03588164034388283,11.24426452565721,69.37421066654039,198.5487981534698,2.956412163685637,3.176470037085093,5.36982513190251,44012,0,3001,7.24,N,N,175.859,,0.067,4.775,,0.668,0.308,,C,C,,1.94249,MBA,0.183549046599652,1961.328629427392,62.37937789889654
423,Gratia,2.776580040258145,0.1076749730293397,8.220063030136371,99.14872330749556,333.1262290106439,2.477611859309547,3.075548221206744,4.6267229899945,44363,0,2511,9.5,N,N,102.565,,0.027,19.47,,,,,,,,1.49564,MBA,0.2130290241060505,1689.910572095491,202.0896531914207
424,Cornelia,2.886808473929153,0.05969414780140339,4.047556690014716,61.06768308699142,121.492986453753,2.714482902212083,3.059134045646224,4.9049564919529,43473,0,3130,9.8,N,N,67.925,,0.042,17.505,,,,,C,,,1.71935,MBA,0.2009449594475672,1791.535358685796,266.4179372889535
425,Hippo,2.890206276517585,0.1048194389669572,19.48541439233107,311.3337585706271,222.5555635222252,2.587256476114233,3.193156076920936,4.91361881424804,42338,0,2237,8.42,N,N,137.562,,0.04,34.3,,0.71,0.345,,,F,,1.6248,MBA,0.2005907093382032,1794.699271904098,88.18564886054494
426,Galene,2.971398447963298,0.1210492127649505,5.125128010695155,297.4012951467608,11.86413573707224,2.611713005026345,3.331083890900251,5.1221175434446,41875,0,2832,10.1,N,N,32.193,,0.205,3.705,,,,,,,,1.5965,MBA,0.1924255495911028,1870.85343274314,283.1031764065365
427,Monachia,2.309052743726686,0.1777320256100994,6.191018250213778,17.57939363515945,15.64996850522714,1.898660122343585,2.719445365109788,3.50880297160963,44456,0,2550,11.9,N,N,20.184,,0.069,3.63384,,,,,,,,0.904664,MBA,0.2809010056541905,1281.590285380417,248.4974969569071
428,Lotis,2.606901548225817,0.1228071664980216,9.542354650340028,219.9413809407143,169.1562067148834,2.286755355748899,2.927047740702735,4.20915721492966,43118,0,2814,9.82,N,N,69.62,,0.043,13.577,,0.741,0.346,,,C,,1.29235,MBA,0.2341623828807325,1537.394672753058,321.9569333077372
429,Hybris,2.844740399935721,0.254593540583099,14.59588986838983,249.4312932928741,179.0191386033909,2.120487869476305,3.568992930395138,4.79813168472167,30546,0,1883,11.1,N,N,31.702,,0.054,7.205,,,,,,,,1.13449,MBA,0.2054187646633402,1752.517597844589,118.6658378952376
430,Nephele,3.139731472196815,0.1701010413207723,1.827625151266937,117.1895925548743,216.9741875764508,2.605659879308535,3.673803065085095,5.56348551586996,42758,0,3027,8.72,N,N,101.900,,0.055,13.53,,0.643,0.334,,B,B,,1.59502,MBA,0.1771598542956636,2032.063084671503,46.92432792001983
431,Pythia,2.368655920144168,0.146156337707624,12.12223088610096,88.74995129329398,174.1582106051788,2.022461845566415,2.714849994721922,3.64553413698985,43329,0,2336,8.84,N,N,46.90,,0.2338,8.252,,0.87,0.44,,S,S,,1.00665,MBA,0.2703653967649843,1331.531343535544,274.5043771012931
432,Eros,1.458112258549551,0.2227357205256897,10.82856732664407,304.3062624764607,178.8213598069167,1.133338574034176,1.782885943064926,1.76073762203287,45762,0,8146,11.16,Y,N,16.84,34.4x11.2x11.2,0.25,5.27,0.0004463,0.921,0.531,,S,S,0.46,0.149341,AMO,0.5597803278773568,643.109416447505,47.2394600142737
433,Hungaria,1.944104209303828,0.07374239675963945,22.50883956660048,175.320954649508,124.0319630101876,1.80074130535926,2.087467113248397,2.71073780803729,44070,0,2492,11.21,N,N,8.934,,0.726,26.521,,0.717,0.247,,Xe,E,,0.833343,IMB,0.3636007438436845,990.0969843856192,224.4458595997103
434,Ella,2.448988548113453,0.1557370980868938,1.816627809425122,23.17922774843889,333.5414234888295,2.067590178382229,2.830386917844678,3.83255445010386,44070,0,3138,10.23,N,N,34.792,,0.118,4.623,,0.709,0.28,,,DCX,,1.06264,MBA,0.2571721540292393,1399.840512900435,162.7003316586218
435,Patricia,3.20103910858883,0.06852747648462199,18.50488712276633,351.3292160687668,41.07385150132668,2.981679976348654,3.420398240829007,5.72723063546821,44242,0,2305,10,N,N,58.609,,0.06,16.133,,,,,,,,2.00262,OMB,0.1720947428349863,2091.870989604764,354.3294859346707
436,Rhodia,2.385461475733409,0.249044895432346,7.345720945626008,263.2132661978768,61.94608612202699,1.791374471951492,2.979548479515326,3.68440033536602,44241,0,2648,10.41,N,N,13.373,,0.677,433.2,,0.73,,,,,,0.792382,MBA,0.2675133518761992,1345.727222492439,262.8950928893356
437,Zeuxo,2.554178642720065,0.06857492389009481,7.371863562872122,49.14304143567866,211.3199977694945,2.379026036693831,2.729331248746298,4.08211378383373,44110,0,2546,9.8,N,N,58.871,,0.061,8.831,,0.611,0.2,,,F:,,1.36722,MBA,0.2414499780165124,1490.99205954527,325.0272822274389
438,Ohio,3.132603653066586,0.06515580694200754,19.12913299327083,201.4734847843422,244.2517058899584,2.928496334221552,3.33671097191162,5.54455093317066,44208,0,2950,9.83,N,N,70.421,,0.027,37.46,,0.72,0.217,,,X:,,1.98922,MBA,0.1777648533212996,2025.147228340582,210.2625458024767
439,Theodora,2.210752855290298,0.1073543208022203,1.596837251999137,292.0555529276311,179.452739210464,1.973418984049039,2.448086726531557,3.28714221762778,44210,0,2850,11.5,N,N,13.600,,0.63,4.828,,,,,,,,0.990284,MBA,0.2998429085550336,1200.628694988546,164.1750628059479
440,Bathilde,2.806762589157485,0.08010624799631053,8.159244730242449,253.5269437723074,202.8934397797203,2.581923369123669,3.031601809191301,4.70236916749708,44154,0,2648,8.51,N,N,65.131,,0.204,10.446,,0.701,0.25,,Xk,M,,1.60079,MBA,0.209602064036196,1717.540338428308,196.4003969427522
441,Eichsfeldia,2.344948751609282,0.07101324276415491,6.069625065487028,134.8951894780832,84.55435584017908,2.17842633664175,2.511471166576814,3.59094072086609,46611,0,2887,10.03,N,N,62.171,,0.044,11.871,,0.692,0.331,,Ch,C,,1.18081,MBA,0.2744757878180276,1311.59109829634,100.8879829653799
442,Photographica,2.215192327469483,0.04080051028194505,4.234976595818243,175.4174328543631,349.4168905250909,2.124811350136078,2.305573304802887,3.29704868467799,44085,0,2721,10.28,N,N,25.504,,0.21,19.795,,0.902,0.479,,Sl,S,,1.13169,MBA,0.2989419864947546,1204.247032078636,147.9031239905521
443,Gyptis,2.769286299100314,0.1756007250477775,10.2769596384065,195.7145524931673,154.7384265596747,2.282997617113423,3.255574981087206,4.60850420216061,43960,0,2654,7.83,N,N,159.331,,0.051,6.214,,0.676,0.293,,C,C,0.22,1.28175,MBA,0.2138711912002735,1683.256159839164,226.0349123859117
444,Edna,3.197366070413263,0.1966320521326611,21.30888160591912,292.0164894366393,81.60115801210546,2.568661418568561,3.826070722257966,5.71737588189416,43856,0,2148,9.29,N,N,87.812,,0.044,19.97,,0.684,0.368,,,C,,1.66959,MBA,0.1723913738973936,2088.271540861841,2.270506196106864
445,Aeternitas,2.788538956969089,0.1267765875130667,10.62230721254368,42.08447532853445,278.87674910642,2.435017503857301,3.142060410080876,4.65664656298374,43825,0,2488,8.9,N,N,53.562,,0.317,15.7413,,1.026,0.615,,A,A,,1.45034,MBA,0.2116601013275136,1700.840157129811,295.9191511856712
